IRIDIUM 33 DEB          
1 34146U 97051DZ  17345.96688428  .00000572  00000-0  18910-3 0  9997
2 34146  86.2902 178.1183 0040254  86.0124  32.9426 14.35780295460743
